NORAD_CAT_ID,OBJECT_NAME,OBJECT_TYPE,EPOCH,MEAN_MOTION,ECCENTRICITY,INCLINATION,RA_OF_ASC_NODE,ARG_OF_PERICENTER,MEAN_ANOMALY,BSTAR,MEAN_MOTION_DOT,MEAN_MOTION_DDOT,TLE_LINE0,TLE_LINE1,TLE_LINE2,SEMIMAJOR_AXIS,PERIOD,APOGEE,PERIGEE,DECAYED
52626.0,STARLINK-3990,PAYLOAD,2022-12-19 17:04:28,15.08842964,0.000193,53.2167,148.3055,50.8377,309.2786,7.2218e-05,8.61e-06,0.0,0 STARLINK-3990,1 52626U 22052AE  22353.71144094  .00000861  00000-0  72218-4 0  9996,2 52626  53.2167 148.3055 0001930  50.8377 309.2786 15.08842964 33835,6917.871,95.437,541.071,538.401,0.0
52626.0,STARLINK-3990,PAYLOAD,2022-12-19 20:15:14,15.0884396,0.0001939,53.2163,147.7101,50.3839,309.7324,0.00010064,1.314e-05,0.0,0 STARLINK-3990,1 52626U 22052AE  22353.84391998  .00001314  00000-0  10064-3 0  9991,2 52626  53.2163 147.7101 0001939  50.3839 309.7324 15.08843960 33473,6917.868,95.437,541.075,538.3919999999998,0.0
52626.0,STARLINK-3990,PAYLOAD,2022-12-20 08:58:19,15.08852714,0.0001965,53.2164,145.3314,49.7605,310.3559,0.00020722,3.012e-05,0.0,0 STARLINK-3990,1 52626U 22052AE  22354.37383395  .00003012  00000-0  20722-3 0  9991,2 52626  53.2164 145.3314 0001965  49.7605 310.3559 15.08852714 33932,6917.842,95.437,541.066,538.347,0.0
52626.0,STARLINK-3990,PAYLOAD,2022-12-20 12:09:05,15.08852295,0.0001964,53.2162,144.7363,46.3959,313.7196,0.00019832,2.871e-05,0.0,0 STARLINK-3990,1 52626U 22052AE  22354.50631381  .00002871  00000-0  19832-3 0  9999,2 52626  53.2162 144.7363 0001964  46.3959 313.7196 15.08852295 33579,6917.843000000003,95.437,541.066,538.349,0.0
52626.0,STARLINK-3990,PAYLOAD,2022-12-20 16:55:15,15.08844194,0.0001947,53.2161,143.8439,46.0866,314.0287,6.9432e-05,8.17e-06,0.0,0 STARLINK-3990,1 52626U 22052AE  22354.70503738  .00000817  00000-0  69432-4 0  9995,2 52626  53.2161 143.8439 0001947  46.0866 314.0287 15.08844194 33986,6917.868,95.437,541.0790000000002,538.386,0.0
52626.0,STARLINK-3990,PAYLOAD,2022-12-21 10:24:29,15.0883645,0.0001896,53.2162,140.5731,45.2622,314.8524,-9.7426e-07,-3.04e-06,0.0,0 STARLINK-3990,1 52626U 22052AE  22355.43367948 -.00000304  00000-0 -97426-6 0  9996,2 52626  53.2162 140.5731 0001896  45.2622 314.8524 15.08836450 34091,6917.891,95.438,541.068,538.445,0.0
52626.0,STARLINK-3990,PAYLOAD,2022-12-22 11:50:40,15.08830508,0.0001956,53.2173,135.8161,32.9154,327.196,-4.888600000000001e-05,-1.066e-05,0.0,0 STARLINK-3990,1 52626U 22052AE  22356.49352720 -.00001066  00000-0 -48886-4 0  9995,2 52626  53.2173 135.8161 0001956  32.9154 327.1960 15.08830508 33871,6917.909000000002,95.438,541.128,538.4209999999998,0.0
52626.0,STARLINK-3990,PAYLOAD,2022-12-22 16:36:49,15.08838019,0.0001953,53.2173,134.9244,32.0155,328.0955,-3.6239e-05,-8.65e-06,0.0,0 STARLINK-3990,1 52626U 22052AE  22356.69224273 -.00000865  00000-0 -36239-4 0  9993,2 52626  53.2173 134.9244 0001953  32.0155 328.0955 15.08838019 34287,6917.886,95.438,541.1030000000002,538.4,0.0
52626.0,STARLINK-3990,PAYLOAD,2022-12-22 18:12:12,15.08839548,0.0001911,53.2173,134.6268,34.4161,325.6954,-2.2611e-05,-6.48e-06,0.0,0 STARLINK-3990,1 52626U 22052AE  22356.75848178 -.00000648  00000-0 -22611-4 0  9994,2 52626  53.2173 134.6268 0001911  34.4161 325.6954 15.08839548 33916,6917.882,95.438,541.069,538.425,0.0
52626.0,STARLINK-3990,PAYLOAD,2022-12-23 10:06:04,15.08824754,0.0001825,53.2174,131.6533,39.8066,320.306,0.00010285,1.348e-05,0.0,0 STARLINK-3990,1 52626U 22052AE  22357.42088907  .00001348  00000-0  10285-3 0  9994,2 52626  53.2174 131.6533 0001825  39.8066 320.3060 15.08824754 34392,6917.927,95.439,541.055,538.529,0.0
52626.0,STARLINK-3990,PAYLOAD,2022-12-23 13:16:50,15.08882833,0.0001606,53.2174,131.0586,30.7218,329.3868,-0.00069003,-0.00011266,0.0,0 STARLINK-3990,1 52626U 22052AE  22357.55335730 -.00011266  00000-0 -69003-3 0  9991,2 52626  53.2174 131.0586 0001606  30.7218 329.3868 15.08882833 34410,6917.749,95.435,540.725,538.503,0.0
52626.0,STARLINK-3990,PAYLOAD,2022-12-23 14:52:14,15.08831559,0.0001848,53.2175,130.7613,40.4192,319.6937,3.3767e-05,2.49e-06,0.0,0 STARLINK-3990,1 52626U 22052AE  22357.61960867  .00000249  00000-0  33767-4 0  9999,2 52626  53.2175 130.7613 0001848  40.4192 319.6937 15.08831559 34042,6917.906,95.438,541.05,538.493,0.0
52626.0,STARLINK-3990,PAYLOAD,2022-12-24 01:59:55,15.08842151,0.0001916,53.2176,128.6799,40.4047,319.7088,5.839e-05,6.41e-06,0.0,0 STARLINK-3990,1 52626U 22052AE  22358.08328222  .00000641  00000-0  58390-4 0  9999,2 52626  53.2176 128.6799 0001916  40.4047 319.7088 15.08842151 34496,6917.874,95.437,541.064,538.413,0.0
52626.0,STARLINK-3990,PAYLOAD,2022-12-24 08:21:28,15.08836554,0.0001939,53.2177,127.4902,40.4492,319.6644,0.00013319,1.832e-05,0.0,0 STARLINK-3990,1 52626U 22052AE  22358.34824398  .00001832  00000-0  13319-3 0  9997,2 52626  53.2177 127.4902 0001939  40.4492 319.6644 15.08836554 34159,6917.891,95.438,541.097,538.415,0.0
52626.0,STARLINK-3990,PAYLOAD,2022-12-25 08:12:15,15.08841798,0.0002034,53.2181,123.0293,41.8433,318.2715,0.00013388,1.843e-05,0.0,0 STARLINK-3990,1 52626U 22052AE  22359.34184160  .00001843  00000-0  13388-3 0  9992,2 52626  53.2181 123.0293 0002034  41.8433 318.2715 15.08841798 34684,6917.875,95.437,541.1469999999998,538.3330000000002,0.0
52626.0,STARLINK-3990,PAYLOAD,2022-12-25 14:33:47,15.08840803,0.0002077,53.2184,121.84,43.2858,316.8297,0.00011325,1.515e-05,0.0,0 STARLINK-3990,1 52626U 22052AE  22359.60680314  .00001515  00000-0  11325-3 0  9998,2 52626  53.2184 121.8400 0002077  43.2858 316.8297 15.08840803 34345,6917.878000000002,95.438,541.18,538.306,0.0
52626.0,STARLINK-3990,PAYLOAD,2022-12-26 01:41:30,15.08833285,0.0002035,53.2184,119.7584,41.3014,318.8131,-2.8931e-05,-7.49e-06,0.0,0 STARLINK-3990,1 52626U 22052AE  22360.07049228 -.00000749  00000-0 -28931-4 0  9996,2 52626  53.2184 119.7584 0002035  41.3014 318.8131 15.08833285 34795,6917.901,95.438,541.174,538.3580000000002,0.0
52626.0,STARLINK-3990,PAYLOAD,2022-12-26 08:03:03,15.08834849,0.0002023,53.2182,118.5686,41.8197,318.2949,6.0592e-06,-1.92e-06,0.0,0 STARLINK-3990,1 52626U 22052AE  22360.33545163 -.00000192  00000-0  60592-5 0  9995,2 52626  53.2182 118.5686 0002023  41.8197 318.2949 15.08834849 34458,6917.896,95.438,541.161,538.362,0.0
52626.0,STARLINK-3990,PAYLOAD,2022-12-26 17:35:21,15.08844328,0.0002086,53.2184,116.786,39.3758,320.7386,6.5578e-05,7.56e-06,0.0,0 STARLINK-3990,1 52626U 22052AE  22360.73288360  .00000756  00000-0  65578-4 0  9995,2 52626  53.2184 116.7860 0002086  39.3758 320.7386 15.08844328 34892,6917.8669999999975,95.437,541.175,538.289,0.0
52626.0,STARLINK-3990,PAYLOAD,2022-12-27 07:53:48,15.088532,0.0002171,53.2189,114.1096,42.4249,317.6911,0.00011188,1.493e-05,0.0,0 STARLINK-3990,1 52626U 22052AE  22361.32903482  .00001493  00000-0  11188-3 0  9996,2 52626  53.2189 114.1096 0002171  42.4249 317.6911 15.08853200 34983,6917.84,95.437,541.207,538.203,0.0
52626.0,STARLINK-3990,PAYLOAD,2022-12-27 14:15:20,15.08858213,0.0002176,53.2189,112.9201,43.62300000000001,316.4934,0.00015254,2.141e-05,0.0,0 STARLINK-3990,1 52626U 22052AE  22361.59398917  .00002141  00000-0  15254-3 0  9995,2 52626  53.2189 112.9201 0002176  43.6230 316.4934 15.08858213 34649,6917.825,95.436,541.195,538.184,0.0
52626.0,STARLINK-3990,PAYLOAD,2022-12-28 07:44:35,15.08847247,0.0002225,53.2177,109.6497,43.2583,316.8584,0.0001038,1.364e-05,0.0,0 STARLINK-3990,1 52626U 22052AE  22362.32263406  .00001364  00000-0  10380-3 0  9992,2 52626  53.2177 109.6497 0002225  43.2583 316.8584 15.08847247 35133,6917.858,95.437,541.262,538.184,0.0
52626.0,STARLINK-3990,PAYLOAD,2022-12-28 23:38:28,15.08832664,0.0002194,53.2184,106.676,42.7366,317.3796,-6.8707e-05,-1.381e-05,0.0,0 STARLINK-3990,1 52626U 22052AE  22362.98504737 -.00001381  00000-0 -68707-4 0  9997,2 52626  53.2184 106.6760 0002194  42.7366 317.3796 15.08832664 35238,6917.903,95.438,541.286,538.25,0.0
52626.0,STARLINK-3990,PAYLOAD,2022-12-29 07:35:24,15.08824117,0.0001831999999999,53.221,105.1888,40.0925,320.0202,-5.3393e-05,-1.137e-05,0.0,0 STARLINK-3990,1 52626U 22052AE  22363.31625107 -.00001137  00000-0 -53393-4 0  9994,2 52626  53.2210 105.1888 0001832  40.0925 320.0202 15.08824117 34903,6917.929,95.439,541.061,538.5269999999998,0.0
52626.0,STARLINK-3990,PAYLOAD,2022-12-29 13:56:57,15.08815674,0.0002157,53.2211,104.0016,36.6773,323.4366,-0.00010862,-2.015e-05,0.0,0 STARLINK-3990,1 52626U 22052AE  22363.58122262 -.00002015  00000-0 -10862-3 0  9996,2 52626  53.2211 104.0016 0002157  36.6773 323.4366 15.08815674 35321,6917.955,95.439,541.312,538.328,0.0
52626.0,STARLINK-3990,PAYLOAD,2022-12-29 23:29:16,15.08828185,0.0002322,53.2195,102.2137,39.1564,320.9595,-0.0001985,-3.445e-05,0.0,0 STARLINK-3990,1 52626U 22052AE  22363.97866002 -.00003445  00000-0 -19850-3 0  9990,2 52626  53.2195 102.2137 0002322  39.1564 320.9595 15.08828185 35389,6917.917,95.438,541.388,538.175,0.0
52626.0,STARLINK-3990,PAYLOAD,2022-12-30 10:36:57,15.0883975,0.0002029,53.2182,100.1338,42.7516,317.3634,-4.0841e-05,-9.38e-06,0.0,0 STARLINK-3990,1 52626U 22052AE  22364.44233256 -.00000938  00000-0 -40841-4 0  9991,2 52626  53.2182 100.1338 0002029  42.7516 317.3634 15.08839750 35458,6917.880999999999,95.438,541.15,538.3430000000002,0.0
52626.0,STARLINK-3990,PAYLOAD,2022-12-30 13:47:43,15.08830709,0.0002210999999999,53.2196,99.5424,38.0303,322.0845,0.00018024,2.581e-05,0.0,0 STARLINK-3990,1 52626U 22052AE  22364.57481279  .00002581  00000-0  18024-3 0  9996,2 52626  53.2196  99.5424 0002211  38.0303 322.0845 15.08830709 35097,6917.909000000002,95.438,541.303,538.244,0.0
52626.0,STARLINK-3990,PAYLOAD,2022-12-30 23:20:01,15.08849383,0.0002253,53.2201,97.7575,45.5496,314.568,0.00025785,3.819e-05,0.0,0 STARLINK-3990,1 52626U 22052AE  22364.97223975  .00003819  00000-0  25785-3 0  9994,2 52626  53.2201  97.7575 0002253  45.5496 314.5680 15.08849383 35533,6917.852,95.437,541.275,538.158,0.0
